LITUANICASAT-2          
1 42768U 17036D   17315.42655108  .00003418  00000-0  15953-3 0  9994
2 42768  97.4332  13.2563 0017753 107.7647 252.5527 15.20376444 21469
LEMUR-2-SHAINAJOHL      
1 42771U 17036G   17315.41618873  .00002567  00000-0  12069-3 0  9994
2 42771  97.4329  13.2692 0016893 106.9269 253.3820 15.20366332 21401
LEMUR-2-XUENITERENCE    
1 42772U 17036H   17315.60935235  .00002367  00000-0  11141-3 0  9998
2 42772  97.4330  13.4686 0016580 106.0737 254.2325 15.20407503 21432
LEMUR-2-LUCYBRYCE       
1 42773U 17036J   17315.60033718  .00002893  00000-0  13477-3 0  9992
2 42773  97.4333  13.4819 0016375 105.9230 254.3811 15.20589473 21430
LEMUR-2-KUNGFOO         
1 42774U 17036K   17315.60313726  .00002562  00000-0  12010-3 0  9998
2 42774  97.4333  13.4817 0016319 105.7253 254.5784 15.20476512 21429
AALTO-1                 
1 42775U 17036L   17315.60329132  .00001585  00000-0  75881-4 0  9997
2 42775  97.4326  13.4769 0016007 104.5649 255.7362 15.20312455 21439
URSA MAIOR              
1 42776U 17036M   17315.59937313  .00001583  00000-0  75658-4 0  9992
2 42776  97.4330  13.4871 0015908 104.9026 255.3972 15.20369759 21433
COMPASS 2               
1 42777U 17036N   17315.82811797  .00002750  00000-0  12711-3 0  9993
2 42777  97.4342  13.8108 0014860 108.0772 252.2084 15.20924793 21461
LEMUR-2-LYNSEY-SYMO     
1 42779U 17036Q   17315.34667171  .00003067  00000-0  14030-3 0  9995
2 42779  97.4335  13.3688 0014352 115.4835 244.7887 15.21200795 21389
LEMUR-2-LISASAURUS      
1 42780U 17036R   17315.54589770  .00002531  00000-0  11663-3 0  9991
2 42780  97.4332  13.5557 0014270 114.6134 245.6590 15.21106216 21426
LEMUR-2-SAM-AMELIA      
1 42781U 17036S   17315.80304260  .00002788  00000-0  12771-3 0  9995
2 42781  97.4333  13.8220 0014193 114.4035 245.8684 15.21236914 21458
LEMUR-2-MCPEAKE         
1 42782U 17036T   17315.60291414  .00002862  00000-0  13086-3 0  9993
2 42782  97.4335  13.6345 0014042 114.5663 245.7037 15.21270499 21422
DIAMOND RED             
1 42783U 17036U   17315.54602591  .00002060  00000-0  95894-4 0  9997
2 42783  97.4328  13.5528 0014132 115.9919 244.2773 15.20967338 21421
PEGASUS                 
1 42784U 17036V   17315.60702729  .00002034  00000-0  94465-4 0  9993
2 42784  97.4331  13.6264 0014089 116.1364 244.1323 15.21065170 21437
DIAMOND GREEN           
1 42785U 17036W   17315.41351229  .00001803  00000-0  84367-4 0  9991
2 42785  97.4330  13.4284 0014028 116.9881 243.2789 15.20965089 21479
DIAMOND BLUE            
1 42786U 17036X   17315.41180759  .00001904  00000-0  88945-4 0  9998
2 42786  97.4330  13.4296 0013878 117.2823 242.9828 15.20942175 21476
NUDTSAT                 
1 42787U 17036Y   17315.58987339  .00002944  00000-0  13409-3 0  9993
2 42787  97.4333  13.6492 0013732 116.4671 243.7975 15.21384835 21275
SUCHAI                  
1 42788U 17036Z   17315.59591529  .00002444  00000-0  11234-3 0  9996
2 42788  97.4330  13.6394 0013748 116.2933 243.9717 15.21236457 21508
SKCUBE                  
1 42789U 17036AA  17315.59313430  .00002322  00000-0  10689-3 0  9998
2 42789  97.4329  13.6413 0013569 116.1667 244.0966 15.21244652 21428
VZLUSAT-1               
1 42790U 17036AB  17315.58337978  .00003033  00000-0  13794-3 0  9992
2 42790  97.4329  13.6507 0013268 116.7408 243.5187 15.21423159 21429
ROBUSTA-1B              
1 42792U 17036AD  17315.71287611  .00002341  00000-0  10731-3 0  9996
2 42792  97.4326  13.7818 0013128 116.7761 243.4820 15.21378692 21458
CICERO 6                
1 42793U 17036AE  17315.56776011  .00001711  00000-0  79180-4 0  9991
2 42793  97.4323  13.6675 0012172 117.7103 242.5369 15.21432398 21503
D-SAT                   
1 42794U 17036AF  17315.70867497  .00000634  00000-0  61396-4 0  9990
2 42794  97.6247  13.1979 0125968 285.7573  72.9783 14.90697960 21326
TOKI                    
1 42820U 98067MU  17315.64797067  .00017761  00000-0  22553-3 0  9991
2 42820  51.6389  20.6913 0003515  52.7941 307.3373 15.59489518 19824
GHANASAT-1              
1 42821U 98067MV  17315.59093749  .00017346  00000-0  22184-3 0  9991
2 42821  51.6389  21.0605 0003456  56.6759 303.4565 15.59319972 19817
MAZAALAI (NUMSAT-1)     
1 42822U 98067MW  17315.65498247  .00017705  00000-0  22587-3 0  9997
2 42822  51.6390  20.7389 0003421  58.7551 301.3777 15.59368472 19800
BRAC ONNESHA            
1 42823U 98067MX  17315.59285588  .00017724  00000-0  22598-3 0  9996
2 42823  51.6395  21.0784 0006118  84.5185 275.6505 15.59372979 19792
NIGERIAEDUSAT-1         
1 42824U 98067MY  17315.59834178  .00017749  00000-0  22705-3 0  9999
2 42824  51.6401  21.1172 0005999  85.1472 275.0205 15.59283814 19818
LEMUR-2-GREENBERG       
1 42837U 17042N   17315.52555547  .00000940  00000-0  99927-4 0  9996
2 42837  97.6077 220.9547 0012539 196.2503 163.8315 14.91183503 17917
LEMUR-2-ANDIS           
1 42838U 17042P   17315.79227312  .00000951  00000-0  10102-3 0  9991
2 42838  97.6077 221.2151 0012660 195.2730 164.8108 14.91202039 17950
LEMUR-2-MONSON          
1 42839U 17042Q   17315.51698882  .00000596  00000-0  65302-4 0  9994
2 42839  97.6076 220.9642 0012476 195.2581 164.8263 14.91250739 17918
LEMUR-2-FURIAUS         
1 42840U 17042R   17315.84855838  .00000951  00000-0  10066-3 0  9999
2 42840  97.6075 221.2919 0012465 194.6433 165.4426 14.91339145 17958
LEMUR-2-PETERG          
1 42841U 17042S   17315.30123626  .00001200  00000-0  12525-3 0  9994
2 42841  97.6076 220.7889 0012116 194.9064 165.1799 14.91469331 17889
LEMUR-2-DEMBITZ         
1 42842U 17042T   17315.70199645  .00001107  00000-0  11586-3 0  9995
2 42842  97.6074 221.1774 0012139 194.0745 166.0138 14.91490784 17948
LEMUR-2-ZACHARY         
1 42845U 17042W   17315.55055888  .00001132  00000-0  11777-3 0  9991
2 42845  97.6025 220.9908 0012380 199.6560 160.4183 14.91685451 17919
FLOCK 2K-03             
1 42850U 17042AB  17315.62512768  .00010370  00000-0  31120-3 0  9998
2 42850  96.9936 218.2135 0011143 171.4339 188.7097 15.34565359 18244
FLOCK 2K-04             
1 42851U 17042AC  17315.62872253  .00011072  00000-0  33229-3 0  9999
2 42851  96.9939 218.2119 0010883 172.8287 187.3115 15.34547577 18245
FLOCK 2K-01             
1 42852U 17042AD  17315.62703470  .00010456  00000-0  31355-3 0  9997
2 42852  96.9936 218.2126 0010689 171.5790 188.5636 15.34589967 18240
FLOCK 2K-02             
1 42853U 17042AE  17315.46379231  .00002517  00000-0  80742-4 0  9998
2 42853  96.9947 217.9942 0011775 173.2348 186.9056 15.33137550 18211
FLOCK 2K-47             
1 42854U 17042AF  17315.68864098  .00007038  00000-0  21211-3 0  9991
2 42854  96.9939 218.2768 0010596 169.3576 190.7894 15.34550980 18256
FLOCK 2K-48             
1 42855U 17042AG  17315.68719770  .00008251  00000-0  24809-3 0  9992
2 42855  96.9938 218.2835 0010577 169.7594 190.3867 15.34571813 18258
FLOCK 2K-45             
1 42856U 17042AH  17315.29434247  .00012065  00000-0  36140-3 0  9992
2 42856  96.9936 217.9114 0010687 170.1197 190.0259 15.34589679 18194
FLOCK 2K-24             
1 42857U 17042AJ  17315.48875135  .00010155  00000-0  30521-3 0  9994
2 42857  96.9938 218.0974 0010785 167.6044 192.5468 15.34525105 18221
FLOCK 2K-46             
1 42858U 17042AK  17315.48756033  .00009747  00000-0  29275-3 0  9999
2 42858  96.9941 218.1051 0010897 169.0521 191.0962 15.34555537 18228
FLOCK 2K-23             
1 42859U 17042AL  17315.81212880  .00011002  00000-0  32943-3 0  9997
2 42859  96.9940 218.4139 0010995 168.5202 191.6295 15.34622321 18273
FLOCK 2K-21             
1 42860U 17042AM  17315.81041238  .00010732  00000-0  32187-3 0  9995
2 42860  96.9939 218.4152 0011028 167.8175 192.3338 15.34576225 18274
FLOCK 2K-22             
1 42861U 17042AN  17315.62805260  .00010812  00000-0  32589-3 0  9993
2 42861  96.9942 218.2167 0010956 166.6620 193.4916 15.34416483 18244
FLOCK 2K-07             
1 42862U 17042AP  17315.74351531  .00006659  00000-0  20062-3 0  9991
2 42862  96.9942 218.3567 0011263 168.5401 191.6101 15.34574819 18277
FLOCK 2K-08             
1 42863U 17042AQ  17315.54512187  .00010108  00000-0  30364-3 0  9996
2 42863  96.9938 218.1698 0011221 169.9318 190.2153 15.34537688 18233
FLOCK 2K-05             
1 42864U 17042AR  17315.54685442  .00011510  00000-0  34508-3 0  9994
2 42864  96.9941 218.1717 0011281 168.7572 191.3926 15.34565569 18234
FLOCK 2K-40             
1 42865U 17042AS  17315.54376050  .00004088  00000-0  12415-3 0  9992
2 42865  96.9939 218.1760 0011169 169.6458 190.5018 15.34545551 18230
FLOCK 2K-39             
1 42866U 17042AT  17315.67288403  .00008017  00000-0  24080-3 0  9998
2 42866  96.9938 218.2990 0011273 168.7839 191.3659 15.34609726 18252
FLOCK 2K-37             
1 42867U 17042AU  17315.80171633  .00002876  00000-0  88024-4 0  9996
2 42867  96.9941 218.4262 0011229 169.2664 190.8822 15.34535083 18276
FLOCK 2K-38             
1 42868U 17042AV  17315.53791753  .00011802  00000-0  35366-3 0  9997
2 42868  96.9938 218.1825 0011193 169.4170 190.7311 15.34577645 18237
FLOCK 2K-31             
1 42869U 17042AW  17315.53609919  .00005213  00000-0  15745-3 0  9998
2 42869  96.9938 218.1831 0011289 167.8846 192.2672 15.34593453 18235
FLOCK 2K-32             
1 42870U 17042AX  17315.27417500  .00011697  00000-0  35020-3 0  9995
2 42870  96.9931 217.9379 0011304 169.5156 190.6325 15.34607545 18195
FLOCK 2K-29             
1 42871U 17042AY  17315.27262040  .00009956  00000-0  29848-3 0  9999
2 42871  96.9938 217.9421 0011466 168.9519 191.1979 15.34602717 18193
FLOCK 2K-30             
1 42872U 17042AZ  17315.27129415  .00005193  00000-0  15665-3 0  9999
2 42872  96.9940 217.9414 0011372 170.0667 190.0804 15.34632999 18182
FLOCK 2K-44             
1 42873U 17042BA  17315.53042871  .00004849  00000-0  14656-3 0  9995
2 42873  96.9942 218.1936 0012798 158.3961 201.7826 15.34591338 18237
